OBJECT_NAME,OBJECT_ID,EPOCH,MEAN_MOTION,ECCENTRICITY,INCLINATION,RA_OF_ASC_NODE,ARG_OF_PERICENTER,MEAN_ANOMALY,EPHEMERIS_TYPE,CLASSIFICATION_TYPE,NORAD_CAT_ID,ELEMENT_SET_NO,REV_AT_EPOCH,BSTAR,MEAN_MOTION_DOT,MEAN_MOTION_DDOT
2026-134H,2026-134H,2026-06-25T17:42:40.818816,15.09746416,.0014468,97.7034,246.8832,247.8284,112.1410,0,U,69545,999,158,.41322E-3,.6619E-4,0
STARLINK-37880,2026-135A,2026-06-25T20:00:01.999008,15.80748785,.0001423,97.2844,204.3281,90.1682,316.6160,0,U,69546,999,270,.2861E-3,.54837E-3,0
STARLINK-37881,2026-135B,2026-06-25T20:00:01.999008,15.80752325,.0001259,97.2838,204.3292,103.2749,306.7427,0,U,69547,999,270,.29705E-3,.56964E-3,0
STARLINK-37265,2026-135C,2026-06-25T20:00:01.999008,15.80782547,.0001459,97.2843,204.3306,81.5897,332.2456,0,U,69548,999,270,.47746E-4,.8999E-4,0
STARLINK-37871,2026-135D,2026-06-25T20:00:01.999008,15.80760033,.0001461,97.2842,204.3333,82.9595,336.1845,0,U,69549,999,270,.26724E-3,.51217E-3,0
STARLINK-37865,2026-135E,2026-06-25T20:00:01.999008,15.80778645,.0001225,97.2841,204.3361,78.7170,348.6424,0,U,69550,999,270,-.16166E-4,-.3232E-4,0
STARLINK-37862,2026-135F,2026-06-25T20:00:01.999008,15.80779622,.000095,97.2839,204.3430,87.4646,355.8283,0,U,69551,999,270,.84697E-4,.16084E-3,0
STARLINK-37861,2026-135G,2026-06-25T20:00:01.999008,15.80779239,.0001631,97.2842,204.3487,80.4584,13.6577,0,U,69552,999,270,.58862E-4,.11129E-3,0
STARLINK-37859,2026-135H,2026-06-25T20:00:01.999008,15.80775637,.0001518,97.2844,204.3505,82.6129,16.8286,0,U,69553,999,270,.10817E-3,.20589E-3,0
STARLINK-37860,2026-135J,2026-06-25T20:00:01.999008,15.80779015,.0001586,97.2843,204.3513,82.3823,18.6260,0,U,69554,999,270,.61278E-4,.11592E-3,0
STARLINK-37858,2026-135K,2026-06-25T20:00:01.999008,15.80771103,.0001137,97.2841,204.3560,80.0710,31.2568,0,U,69555,999,270,.17065E-3,.326E-3,0
STARLINK-37927,2026-135L,2026-06-25T20:00:01.999008,15.80773198,.0001069,97.2840,204.3567,74.4092,38.2867,0,U,69556,999,270,.16218E-3,.30972E-3,0
STARLINK-37929,2026-135M,2026-06-25T20:00:01.999008,15.80768677,.0001705,97.2842,204.3583,81.8005,35.6431,0,U,69557,999,270,.22677E-3,.43419E-3,0
STARLINK-37954,2026-135N,2026-06-25T20:00:01.999008,15.80784741,.0001078,97.2842,204.3619,71.4243,52.9708,0,U,69558,999,270,-.97846E-4,-.18816E-3,0
STARLINK-37958,2026-135P,2026-06-25T20:00:01.999008,15.80765603,.0001127,97.2840,204.3670,79.7120,58.6881,0,U,69559,999,270,.15169E-3,.28943E-3,0
STARLINK-37950,2026-135Q,2026-06-25T20:00:01.999008,15.80773348,.0001403,97.2841,204.3670,85.1779,54.0466,0,U,69560,999,270,.91053E-4,.173E-3,0
STARLINK-37952,2026-135R,2026-06-25T20:00:01.999008,15.80763285,.0001595,97.2841,204.3717,82.0859,65.0935,0,U,69561,999,270,.20404E-3,.39023E-3,0
STARLINK-37935,2026-135S,2026-06-25T20:00:01.999008,15.80772637,.0000957,97.2838,204.3727,82.4986,69.0721,0,U,69562,999,270,.14425E-3,.2752E-3,0
STARLINK-37936,2026-135T,2026-06-25T20:00:01.999008,15.80778948,.000146,97.2833,204.3895,85.9726,105.5095,0,U,69563,999,270,.17516E-4,.3209E-4,0
STARLINK-37932,2026-135U,2026-06-25T20:00:01.999008,15.80790102,.0001434,97.2834,204.3904,89.5570,103.9555,0,U,69564,999,270,-.98166E-4,-.18883E-3,0
STARLINK-37916,2026-135V,2026-06-25T20:00:01.999008,15.80767705,.0001325,97.2836,204.3923,81.9296,114.7034,0,U,69565,999,270,.16323E-3,.31166E-3,0
STARLINK-37909,2026-135W,2026-06-25T20:00:01.999008,15.80733168,.000144,97.2829,204.4082,74.0372,158.5059,0,U,69566,999,270,.46462E-3,.89433E-3,0
STARLINK-37934,2026-135X,2026-06-25T20:00:01.999008,15.80726715,.0001394,97.2830,204.3998,86.7028,127.6178,0,U,69567,999,270,.48776E-3,.93915E-3,0
STARLINK-37938,2026-135Y,2026-06-25T20:00:01.999008,15.80772866,.0001065,97.2829,204.4057,120.6603,107.5401,0,U,69568,999,270,.96637E-4,.18371E-3,0
STARLINK-37924,2026-135Z,2026-06-25T20:00:01.999008,15.80720288,.0001285,97.2827,204.4122,92.3686,151.5714,0,U,69569,999,270,.42003E-3,.80708E-3,0
SHIJIAN-31 (SJ-31),2026-136A,2026-06-25T19:38:17.448864,1.92222603,.6941096,63.4766,355.1886,171.7657,212.4596,0,U,69570,999,25,0,.236E-5,0
GUOWANG OBJECT A,2026-137A,2026-06-24T15:01:29.887968,13.91753886,.0012385,50.0003,225.7306,251.0733,108.8824,0,U,69572,999,105,.17258927E-3,.74E-6,0
GUOWANG OBJECT B,2026-137B,2026-06-25T09:58:40.384416,13.90147741,.0011712,49.9937,222.5656,251.5364,108.4262,0,U,69573,999,117,.14028E-3,.28E-6,0
GUOWANG OBJECT C,2026-137C,2026-06-24T08:06:35.923392,13.91926960,.00117555,49.9965,226.8623,249.2244,110.7396,0,U,69574,999,102,.14001882E-3,.33E-6,0
