2026-134H               
1 69545U 26134H   26176.73797244  .00006619  00000+0  41322-3 0  9996
2 69545  97.7034 246.8832 0014468 247.8284 112.1410 15.09746416  1589
STARLINK-37880          
1 69546U 26135A   26176.83335647  .00054837  00000+0  28610-3 0  9994
2 69546  97.2844 204.3281 0001423  90.1682 316.6160 15.80748785  2707
STARLINK-37881          
1 69547U 26135B   26176.83335647  .00056964  00000+0  29705-3 0  9994
2 69547  97.2838 204.3292 0001259 103.2749 306.7427 15.80752325  2701
STARLINK-37265          
1 69548U 26135C   26176.83335647  .00008999  00000+0  47746-4 0  9996
2 69548  97.2843 204.3306 0001459  81.5897 332.2456 15.80782547  2703
STARLINK-37871          
1 69549U 26135D   26176.83335647  .00051217  00000+0  26724-3 0  9990
2 69549  97.2842 204.3333 0001461  82.9595 336.1845 15.80760033  2707
STARLINK-37865          
1 69550U 26135E   26176.83335647 -.00003232  00000+0 -16166-4 0  9998
2 69550  97.2841 204.3361 0001225  78.7170 348.6424 15.80778645  2708
STARLINK-37862          
1 69551U 26135F   26176.83335647  .00016084  00000+0  84697-4 0  9990
2 69551  97.2839 204.3430 0000950  87.4646 355.8283 15.80779622  2701
STARLINK-37861          
1 69552U 26135G   26176.83335647  .00011129  00000+0  58862-4 0  9991
2 69552  97.2842 204.3487 0001631  80.4584  13.6577 15.80779239  2708
STARLINK-37859          
1 69553U 26135H   26176.83335647  .00020589  00000+0  10817-3 0  9999
2 69553  97.2844 204.3505 0001518  82.6129  16.8286 15.80775637  2705
STARLINK-37860          
1 69554U 26135J   26176.83335647  .00011592  00000+0  61278-4 0  9992
2 69554  97.2843 204.3513 0001586  82.3823  18.6260 15.80779015  2703
STARLINK-37858          
1 69555U 26135K   26176.83335647  .00032600  00000+0  17065-3 0  9990
2 69555  97.2841 204.3560 0001137  80.0710  31.2568 15.80771103  2708
STARLINK-37927          
1 69556U 26135L   26176.83335647  .00030972  00000+0  16218-3 0  9990
2 69556  97.2840 204.3567 0001069  74.4092  38.2867 15.80773198  2704
STARLINK-37929          
1 69557U 26135M   26176.83335647  .00043419  00000+0  22677-3 0  9997
2 69557  97.2842 204.3583 0001705  81.8005  35.6431 15.80768677  2702
STARLINK-37954          
1 69558U 26135N   26176.83335647 -.00018816  00000+0 -97846-4 0  9994
2 69558  97.2842 204.3619 0001078  71.4243  52.9708 15.80784741  2704
STARLINK-37958          
1 69559U 26135P   26176.83335647  .00028943  00000+0  15169-3 0  9992
2 69559  97.2840 204.3670 0001127  79.7120  58.6881 15.80765603  2701
STARLINK-37950          
1 69560U 26135Q   26176.83335647  .00017300  00000+0  91053-4 0  9996
2 69560  97.2841 204.3670 0001403  85.1779  54.0466 15.80773348  2706
STARLINK-37952          
1 69561U 26135R   26176.83335647  .00039023  00000+0  20404-3 0  9994
2 69561  97.2841 204.3717 0001595  82.0859  65.0935 15.80763285  2708
STARLINK-37935          
1 69562U 26135S   26176.83335647  .00027520  00000+0  14425-3 0  9990
2 69562  97.2838 204.3727 0000957  82.4986  69.0721 15.80772637  2700
STARLINK-37936          
1 69563U 26135T   26176.83335647  .00003209  00000+0  17516-4 0  9994
2 69563  97.2833 204.3895 0001460  85.9726 105.5095 15.80778948  2703
STARLINK-37932          
1 69564U 26135U   26176.83335647 -.00018883  00000+0 -98166-4 0  9991
2 69564  97.2834 204.3904 0001434  89.5570 103.9555 15.80790102  2703
STARLINK-37916          
1 69565U 26135V   26176.83335647  .00031166  00000+0  16323-3 0  9993
2 69565  97.2836 204.3923 0001325  81.9296 114.7034 15.80767705  2702
STARLINK-37909          
1 69566U 26135W   26176.83335647  .00089433  00000+0  46462-3 0  9991
2 69566  97.2829 204.4082 0001440  74.0372 158.5059 15.80733168  2707
STARLINK-37934          
1 69567U 26135X   26176.83335647  .00093915  00000+0  48776-3 0  9992
2 69567  97.2830 204.3998 0001394  86.7028 127.6178 15.80726715  2700
STARLINK-37938          
1 69568U 26135Y   26176.83335647  .00018371  00000+0  96637-4 0  9996
2 69568  97.2829 204.4057 0001065 120.6603 107.5401 15.80772866  2702
STARLINK-37924          
1 69569U 26135Z   26176.83335647  .00080708  00000+0  42003-3 0  9997
2 69569  97.2827 204.4122 0001285  92.3686 151.5714 15.80720288  2701
SHIJIAN-31 (SJ-31)      
1 69570U 26136A   26176.81825751  .00000236  00000+0  00000+0 0  9993
2 69570  63.4766 355.1886 6941096 171.7657 212.4596  1.92222603   259
GUOWANG OBJECT A        
1 69572U 26137A   26175.62604037  .00000074  00000+0  17259-3 0  9994
2 69572  50.0003 225.7306 0012385 251.0733 108.8824 13.91753886  1052
GUOWANG OBJECT B        
1 69573U 26137B   26176.41574519  .00000028  00000+0  14028-3 0  9994
2 69573  49.9937 222.5656 0011712 251.5364 108.4262 13.90147741  1178
GUOWANG OBJECT C        
1 69574U 26137C   26175.33791578  .00000033  00000+0  14002-3 0  9999
2 69574  49.9965 226.8623 0011755 249.2244 110.7396 13.91926960  1026
